{
    "links": {
        "self": "http://www.neowsapp.com/rest/v1/neo/3698540?api_key=iIulBulltgU6a56xZRHN4H3l9WmuAYTsLGpBGhQ2"
    },
    "id": "3698540",
    "neo_reference_id": "3698540",
    "name": "(2014 HM198)",
    "designation": "2014 HM198",
    "nasa_jpl_url": "http://ssd.jpl.nasa.gov/sbdb.cgi?sstr=3698540",
    "absolute_magnitude_h": 27.5,
    "estimated_diameter": {
        "kilometers": {
            "estimated_diameter_min": 0.008405334,
            "estimated_diameter_max": 0.0187948982
        },
        "meters": {
            "estimated_diameter_min": 8.4053340207,
            "estimated_diameter_max": 18.7948982439
        },
        "miles": {
            "estimated_diameter_min": 0.0052228308,
            "estimated_diameter_max": 0.0116786047
        },
        "feet": {
            "estimated_diameter_min": 27.5765560686,
            "estimated_diameter_max": 61.6630539546
        }
    },
    "is_potentially_hazardous_asteroid": false,
    "close_approach_data": [
        {
            "close_approach_date": "2014-04-11",
            "close_approach_date_full": "2014-Apr-11 20:30",
            "epoch_date_close_approach": 1397248200000,
            "relative_velocity": {
                "kilometers_per_second": "7.9953153824",
                "kilometers_per_hour": "28783.1353764648",
                "miles_per_hour": "17884.7209787817"
            },
            "miss_distance": {
                "astronomical": "0.0285391508",
                "lunar": "11.1017296612",
                "kilometers": "4269396.171288796",
                "miles": "2652879.7651695448"
            },
            "orbiting_body": "Earth"
        }
    ],
    "orbital_data": {
        "orbit_id": "3",
        "orbit_determination_date": "2017-04-06 08:40:51",
        "first_observation_date": "2014-04-28",
        "last_observation_date": "2014-04-29",
        "data_arc_in_days": 1,
        "observations_used": 20,
        "orbit_uncertainty": "9",
        "minimum_orbit_intersection": ".0122008",
        "jupiter_tisserand_invariant": "5.786",
        "epoch_osculation": "2456776.5",
        "eccentricity": ".2678315390046325",
        "semi_major_axis": "1.056202022842105",
        "inclination": "8.248435665422079",
        "ascending_node_longitude": "26.87821220131937",
        "orbital_period": "396.4778405158336",
        "perihelion_distance": ".773317809564498",
        "perihelion_argument": "79.79048018894942",
        "aphelion_distance": "1.339086236119712",
        "perihelion_time": "2456687.108026897142",
        "mean_anomaly": "81.1674878857289",
        "mean_motion": ".9079952602940571",
        "equinox": "J2000",
        "orbit_class": {
            "orbit_class_type": "APO",
            "orbit_class_description": "Near-Earth asteroid orbits which cross the Earth’s orbit similar to that of 1862 Apollo",
            "orbit_class_range": "a (semi-major axis) > 1.0 AU; q (perihelion) < 1.017 AU"
        }
    },
    "is_sentry_object": false
}